start=new Date('2023-03-22T00:00:00.000Z').valueOf();
sats=[{"NORAD_CAT_ID":"44937","APOAPSIS":"548.510","ARG_OF_PERICENTER":"69.9727","DECAY_DATE":null,"CLASSIFICATION_TYPE":"U","MEAN_ANOMALY":"290.1475","TLE_LINE2":"2 44937  53.0532 152.0027 0001978  69.9727 290.1475 15.06424064176777","FILE":"3866953","MEAN_MOTION_DOT":"0.00015030","REF_FRAME":"TEME","EPHEMERIS_TYPE":"0","PERIOD":"95.591","OBJECT_NAME":"STARLINK-1079","TIME_SYSTEM":"UTC","REV_AT_EPOCH":"17677","GP_ID":"228616689","TLE_LINE1":"1 44937U 20001Z   23080.88583860  .00015030  00000-0  10251-2 0  9999","MEAN_ELEMENT_THEORY":"SGP4","EPOCH":"2023-03-21T21:15:36.455040","PERIAPSIS":"545.770","BSTAR":"0.00102510000000","RA_OF_ASC_NODE":"152.0027","OBJECT_TYPE":"PAYLOAD","CENTER_NAME":"EARTH","MEAN_MOTION_DDOT":"0.0000000000000","ELEMENT_SET_NO":"999","ECCENTRICITY":"0.00019780","SITE":"AFETR","INCLINATION":"53.0532","OBJECT_ID":"2020-001Z","COUNTRY_CODE":"US","MEAN_MOTION":"15.06424064","RCS_SIZE":"LARGE","SEMIMAJOR_AXIS":"6925.275","LAUNCH_DATE":"2020-01-07"},{"TLE_LINE1":"1 44938U 20001AA  23080.91901968  .00006646  00000-0  46440-3 0  9990","MEAN_ELEMENT_THEORY":"SGP4","PERIAPSIS":"546.002","EPOCH":"2023-03-21T22:03:23.300352","BSTAR":"0.00046440000000","RA_OF_ASC_NODE":"151.8551","TIME_SYSTEM":"UTC","OBJECT_NAME":"STARLINK-1082","REV_AT_EPOCH":"17677","GP_ID":"228616941","TLE_LINE2":"2 44938  53.0531 151.8551 0001662  80.8595 279.2582 15.06419891176770","FILE":"3866953","REF_FRAME":"TEME","MEAN_MOTION_DOT":"0.00006646","EPHEMERIS_TYPE":"0","PERIOD":"95.591","NORAD_CAT_ID":"44938","APOAPSIS":"548.304","ARG_OF_PERICENTER":"80.8595","DECAY_DATE":null,"CLASSIFICATION_TYPE":"U","MEAN_ANOMALY":"279.2582","COUNTRY_CODE":"US","MEAN_MOTION":"15.06419891","RCS_SIZE":"LARGE","SEMIMAJOR_AXIS":"6925.288","LAUNCH_DATE":"2020-01-07","SITE":"AFETR","OBJECT_ID":"2020-001AA","INCLINATION":"53.0531","MEAN_MOTION_DDOT":"0.0000000000000","ELEMENT_SET_NO":"999","ECCENTRICITY":"0.00016620","OBJECT_TYPE":"PAYLOAD","CENTER_NAME":"EARTH"},{"PERIAPSIS":"546.180","EPOCH":"2023-03-21T11:05:12.513696","RA_OF_ASC_NODE":"153.9070","BSTAR":"0.00010709000000","TLE_LINE1":"1 44939U 20001AB  23080.46195039  .00001315  00000-0  10709-3 0  9992","MEAN_ELEMENT_THEORY":"SGP4","GP_ID":"228585936","REV_AT_EPOCH":"17670","OBJECT_NAME":"STARLINK-1083","TIME_SYSTEM":"UTC","EPHEMERIS_TYPE":"0","PERIOD":"95.590","FILE":"3866730","TLE_LINE2":"2 44939  53.0517 153.9070 0001365  68.2008 291.9126 15.06428918176701","MEAN_MOTION_DOT":"0.00001315","REF_FRAME":"TEME","MEAN_ANOMALY":"291.9126","CLASSIFICATION_TYPE":"U","DECAY_DATE":null,"NORAD_CAT_ID":"44939","APOAPSIS":"548.070","ARG_OF_PERICENTER":"68.2008","MEAN_MOTION":"15.06428918","LAUNCH_DATE":"2020-01-07","SEMIMAJOR_AXIS":"6925.260","RCS_SIZE":"LARGE","COUNTRY_CODE":"US","SITE":"AFETR","INCLINATION":"53.0517","OBJECT_ID":"2020-001AB","ECCENTRICITY":"0.00013650","MEAN_MOTION_DDOT":"0.0000000000000","ELEMENT_SET_NO":"999","OBJECT_TYPE":"PAYLOAD","CENTER_NAME":"EARTH"},{"SITE":"AFETR","OBJECT_ID":"2020-001AC","INCLINATION":"53.0523","COUNTRY_CODE":"US","MEAN_MOTION":"15.06458382","RCS_SIZE":"LARGE","SEMIMAJOR_AXIS":"6925.170","LAUNCH_DATE":"2020-01-07","OBJECT_TYPE":"PAYLOAD","CENTER_NAME":"EARTH","MEAN_MOTION_DDOT":"0.0000000000000","ELEMENT_SET_NO":"999","ECCENTRICITY":"0.00015100","TIME_SYSTEM":"UTC","OBJECT_NAME":"STARLINK-1091","REV_AT_EPOCH":"17669","GP_ID":"228585687","TLE_LINE1":"1 44940U 20001AC  23080.40666748  .00030976  00000-0  20860-2 0  9991","MEAN_ELEMENT_THEORY":"SGP4","PERIAPSIS":"545.989","EPOCH":"2023-03-21T09:45:36.070272","BSTAR":"0.00208600000000","RA_OF_ASC_NODE":"154.1525","NORAD_CAT_ID":"44940","APOAPSIS":"548.080","ARG_OF_PERICENTER":"67.7673","DECAY_DATE":null,"MEAN_ANOMALY":"292.3476","CLASSIFICATION_TYPE":"U","TLE_LINE2":"2 44940  53.0523 154.1525 0001510  67.7673 292.3476 15.06458382176691","FILE":"3866730","MEAN_MOTION_DOT":"0.00030976","REF_FRAME":"TEME","PERIOD":"95.588","EPHEMERIS_TYPE":"0"},{"OBJECT_TYPE":"PAYLOAD","CENTER_NAME":"EARTH","ECCENTRICITY":"0.00012190","MEAN_MOTION_DDOT":"0.0000000000000","ELEMENT_SET_NO":"999","SITE":"AFETR","OBJECT_ID":"2020-001AD","INCLINATION":"53.0527","MEAN_MOTION":"15.06446783","SEMIMAJOR_AXIS":"6925.205","LAUNCH_DATE":"2020-01-07","RCS_SIZE":"LARGE","COUNTRY_CODE":"US","CLASSIFICATION_TYPE":"U","MEAN_ANOMALY":"252.9479","DECAY_DATE":null,"NORAD_CAT_ID":"44941","APOAPSIS":"547.914","ARG_OF_PERICENTER":"107.1643","EPHEMERIS_TYPE":"0","PERIOD":"95.589","FILE":"3866730","TLE_LINE2":"2 44941  53.0527 154.0548 0001219 107.1643 252.9479 15.06446783176701","REF_FRAME":"TEME","MEAN_MOTION_DOT":"0.00029622","GP_ID":"228584437","REV_AT_EPOCH":"17670","TIME_SYSTEM":"UTC","OBJECT_NAME":"STARLINK-1094","PERIAPSIS":"546.226","EPOCH":"2023-03-21T10:17:26.431296","BSTAR":"0.00199670000000","RA_OF_ASC_NODE":"154.0548","TLE_LINE1":"1 44941U 20001AD  23080.42877814  .00029622  00000-0  19967-2 0  9994","MEAN_ELEMENT_THEORY":"SGP4"},{"RA_OF_ASC_NODE":"141.5464","BSTAR":"0.00217150000000","PERIAPSIS":"505.618","EPOCH":"2023-03-21T20:49:10.944192","MEAN_ELEMENT_THEORY":"SGP4","TLE_LINE1":"1 44942U 20001AE  23080.86748778  .00046283  00000-0  21715-2 0  9995","REV_AT_EPOCH":"17692","GP_ID":"228617441","TIME_SYSTEM":"UTC","OBJECT_NAME":"STARLINK-1096","PERIOD":"94.785","EPHEMERIS_TYPE":"0","REF_FRAME":"TEME","MEAN_MOTION_DOT":"0.00046283","TLE_LINE2":"2 44942  53.0548 141.5464 0003734   5.2182 354.8851 15.19223131176927","FILE":"3866953","DECAY_DATE":null,"CLASSIFICATION_TYPE":"U","MEAN_ANOMALY":"354.8851","APOAPSIS":"510.761","ARG_OF_PERICENTER":"5.2182","NORAD_CAT_ID":"44942","RCS_SIZE":"LARGE","LAUNCH_DATE":"2020-01-07","SEMIMAJOR_AXIS":"6886.324","MEAN_MOTION":"15.19223131","COUNTRY_CODE":"US","INCLINATION":"53.0548","OBJECT_ID":"2020-001AE","SITE":"AFETR","ECCENTRICITY":"0.00037340","ELEMENT_SET_NO":"999","MEAN_MOTION_DDOT":"0.0000000000000","CENTER_NAME":"EARTH","OBJECT_TYPE":"PAYLOAD"},{"CENTER_NAME":"EARTH","OBJECT_TYPE":"PAYLOAD","ELEMENT_SET_NO":"999","MEAN_MOTION_DDOT":"0.0000000000000","ECCENTRICITY":"0.00016780","INCLINATION":"53.0526","OBJECT_ID":"2020-001AF","SITE":"AFETR","COUNTRY_CODE":"US","RCS_SIZE":"LARGE","LAUNCH_DATE":"2020-01-07","SEMIMAJOR_AXIS":"6925.310","MEAN_MOTION":"15.06412644","ARG_OF_PERICENTER":"77.1235","APOAPSIS":"548.337","NORAD_CAT_ID":"44943","DECAY_DATE":null,"MEAN_ANOMALY":"282.9942","CLASSIFICATION_TYPE":"U","REF_FRAME":"TEME","MEAN_MOTION_DOT":"0.00014741","TLE_LINE2":"2 44943  53.0526 151.8383 0001678  77.1235 282.9942 15.06412644176770","FILE":"3866953","PERIOD":"95.591","EPHEMERIS_TYPE":"0","OBJECT_NAME":"STARLINK-1100","TIME_SYSTEM":"UTC","REV_AT_EPOCH":"17677","GP_ID":"228617692","MEAN_ELEMENT_THEORY":"SGP4","TLE_LINE1":"1 44943U 20001AF  23080.92271406  .00014741  00000-0  10061-2 0  9998","BSTAR":"0.00100610000000","RA_OF_ASC_NODE":"151.8383","EPOCH":"2023-03-21T22:08:42.494784","PERIAPSIS":"546.013"},{"ELEMENT_SET_NO":"999","MEAN_MOTION_DDOT":"0.0000000000000","ECCENTRICITY":"0.00019560","CENTER_NAME":"EARTH","OBJECT_TYPE":"PAYLOAD","COUNTRY_CODE":"US","LAUNCH_DATE":"2020-01-07","SEMIMAJOR_AXIS":"6925.271","RCS_SIZE":"LARGE","MEAN_MOTION":"15.06425388","OBJECT_ID":"2020-001AG","INCLINATION":"53.0526","SITE":"AFETR","MEAN_MOTION_DOT":"0.00014082","REF_FRAME":"TEME","FILE":"3866953","TLE_LINE2":"2 44944  53.0526 151.9203 0001956  82.0676 278.0535 15.06425388176779","EPHEMERIS_TYPE":"0","PERIOD":"95.591","APOAPSIS":"548.490","ARG_OF_PERICENTER":"82.0676","NORAD_CAT_ID":"44944","MEAN_ANOMALY":"278.0535","CLASSIFICATION_TYPE":"U","DECAY_DATE":null,"MEAN_ELEMENT_THEORY":"SGP4","TLE_LINE1":"1 44944U 20001AG  23080.90427517  .00014082  00000-0  96172-3 0  9999","RA_OF_ASC_NODE":"151.9203","BSTAR":"0.00096172000000","PERIAPSIS":"545.781","EPOCH":"2023-03-21T21:42:09.374688","OBJECT_NAME":"STARLINK-1108","TIME_SYSTEM":"UTC","GP_ID":"228616440","REV_AT_EPOCH":"17677"},{"SITE":"AFETR","INCLINATION":"53.0516","OBJECT_ID":"2020-001AH","COUNTRY_CODE":"US","MEAN_MOTION":"15.06474470","SEMIMAJOR_AXIS":"6925.120","LAUNCH_DATE":"2020-01-07","RCS_SIZE":"LARGE","OBJECT_TYPE":"PAYLOAD","CENTER_NAME":"EARTH","MEAN_MOTION_DDOT":"0.0000000000000","ELEMENT_SET_NO":"999","ECCENTRICITY":"0.00011310","OBJECT_NAME":"STARLINK-1109","TIME_SYSTEM":"UTC","GP_ID":"228584936","REV_AT_EPOCH":"17670","TLE_LINE1":"1 44945U 20001AH  23080.46930929  .00029231  00000-0  19692-2 0  9990","MEAN_ELEMENT_THEORY":"SGP4","EPOCH":"2023-03-21T11:15:48.322656","PERIAPSIS":"546.202","RA_OF_ASC_NODE":"153.8722","BSTAR":"0.00196920000000","NORAD_CAT_ID":"44945","ARG_OF_PERICENTER":"91.1147","APOAPSIS":"547.769","CLASSIFICATION_TYPE":"U","MEAN_ANOMALY":"268.9972","DECAY_DATE":null,"FILE":"3866730","TLE_LINE2":"2 44945  53.0516 153.8722 0001131  91.1147 268.9972 15.06474470176707","MEAN_MOTION_DOT":"0.00029231","REF_FRAME":"TEME","PERIOD":"95.587","EPHEMERIS_TYPE":"0"},{"NORAD_CAT_ID":"44946","APOAPSIS":"481.660","ARG_OF_PERICENTER":"59.6050","DECAY_DATE":null,"MEAN_ANOMALY":"300.5420","CLASSIFICATION_TYPE":"U","TLE_LINE2":"2 44946  53.0135 112.4856 0004786  59.6050 300.5420 15.29141686177274","FILE":"3866953","MEAN_MOTION_DOT":"0.00055674","REF_FRAME":"TEME","PERIOD":"94.170","EPHEMERIS_TYPE":"0","OBJECT_NAME":"STARLINK-1110","TIME_SYSTEM":"UTC","REV_AT_EPOCH":"17727","GP_ID":"228616942","TLE_LINE1":"1 44946U 20001AJ  23080.80938844  .00055674  00000-0  19393-2 0  9991","MEAN_ELEMENT_THEORY":"SGP4","EPOCH":"2023-03-21T19:25:31.161216","PERIAPSIS":"475.097","RA_OF_ASC_NODE":"112.4856","BSTAR":"0.00193930000000","OBJECT_TYPE":"PAYLOAD","CENTER_NAME":"EARTH","MEAN_MOTION_DDOT":"0.0000000000000","ELEMENT_SET_NO":"999","ECCENTRICITY":"0.00047860","SITE":"AFETR","OBJECT_ID":"2020-001AJ","INCLINATION":"53.0135","COUNTRY_CODE":"US","MEAN_MOTION":"15.29141686","RCS_SIZE":"LARGE","SEMIMAJOR_AXIS":"6856.514","LAUNCH_DATE":"2020-01-07"}];
